[{
  "_id": {
    "$oid": "64eaed24f482ba44f95662f5"
  },
  "id": 1,
  "movie_id": 1,
  "name": "Inox",
  "address": "City center",
  "city": "siliguri",
  "pincode": "734001",
  "movie_timing": {
    "$date": "2023-08-27T00:00:00.000Z"
  }
},
{
  "_id": {
    "$oid": "64eaed87f482ba44f95662f7"
  },
  "id": 3,
  "movie_id": 1,
  "name": "Urvashi",
  "address": "Savoke Road",
  "city": "siliguri",
  "pincode": "734001",
  "movie_timing": {
    "$date": "2023-08-27T00:00:00.000Z"
  }
},
{
  "_id": {
    "$oid": "64eaf33df482ba44f9566322"
  },
  "id": 46,
  "movie_id": 23,
  "name": "Inox",
  "address": "City Center",
  "city": "siliguri",
  "pincode": "734001",
  "movie_timing": {
    "$date": "2023-08-27T00:00:00.000Z"
  }
},
{
  "_id": {
    "$oid": "64eaedc1f482ba44f95662fa"
  },
  "id": 6,
  "movie_id": 5,
  "name": "Urvashi",
  "address": "Savoke Road",
  "city": "siliguri",
  "pincode": "734001",
  "movie_timing": {
    "$date": "2023-08-27T00:00:00.000Z"
  }
},
{
  "_id": {
    "$oid": "64eaee73f482ba44f956630c"
  },
  "id": 24,
  "movie_id": 23,
  "name": "Urvashi",
  "address": "Savoke Road",
  "city": "siliguri",
  "pincode": "734001",
  "movie_timing": {
    "$date": "2023-08-27T00:00:00.000Z"
  }
},
{
  "_id": {
    "$oid": "64eaee13f482ba44f9566302"
  },
  "id": 14,
  "movie_id": 13,
  "name": "Urvashi",
  "address": "Savoke Road",
  "city": "siliguri",
  "pincode": "734001",
  "movie_timing": {
    "$date": "2023-08-27T00:00:00.000Z"
  }
},
{
  "_id": {
    "$oid": "64eaeda8f482ba44f95662f8"
  },
  "id": 4,
  "movie_id": 2,
  "name": "Urvashi",
  "address": "Savoke Road",
  "city": "siliguri",
  "pincode": "734001",
  "movie_timing": {
    "$date": "2023-08-27T00:00:00.000Z"
  }
},
{
  "_id": {
    "$oid": "64eaee51f482ba44f9566308"
  },
  "id": 20,
  "movie_id": 19,
  "name": "Urvashi",
  "address": "Savoke Road",
  "city": "siliguri",
  "pincode": "734001",
  "movie_timing": {
    "$date": "2023-08-27T00:00:00.000Z"
  }
},
{
  "_id": {
    "$oid": "64eaedd7f482ba44f95662fc"
  },
  "id": 8,
  "movie_id": 7,
  "name": "Urvashi",
  "address": "Savoke Road",
  "city": "siliguri",
  "pincode": "734001",
  "movie_timing": {
    "$date": "2023-08-27T00:00:00.000Z"
  }
},
{
  "_id": {
    "$oid": "64eaedccf482ba44f95662fb"
  },
  "id": 7,
  "movie_id": 6,
  "name": "Urvashi",
  "address": "Savoke Road",
  "city": "siliguri",
  "pincode": "734001",
  "movie_timing": {
    "$date": "2023-08-27T00:00:00.000Z"
  }
},
{
  "_id": {
    "$oid": "64eaed59f482ba44f95662f6"
  },
  "id": 2,
  "movie_id": 1,
  "name": "Vishal",
  "address": "S F Road",
  "city": "siliguri",
  "pincode": "734001",
  "movie_timing": {
    "$date": "2023-08-27T00:00:00.000Z"
  }
},
{
  "_id": {
    "$oid": "64eaedecf482ba44f95662fe"
  },
  "id": 10,
  "movie_id": 9,
  "name": "Urvashi",
  "address": "Savoke Road",
  "city": "siliguri",
  "pincode": "734001",
  "movie_timing": {
    "$date": "2023-08-27T00:00:00.000Z"
  }
},
{
  "_id": {
    "$oid": "64eaee30f482ba44f9566305"
  },
  "id": 17,
  "movie_id": 16,
  "name": "Urvashi",
  "address": "Savoke Road",
  "city": "siliguri",
  "pincode": "734001",
  "movie_timing": {
    "$date": "2023-08-27T00:00:00.000Z"
  }
},
{
  "_id": {
    "$oid": "64eaedb5f482ba44f95662f9"
  },
  "id": 5,
  "movie_id": 4,
  "name": "Urvashi",
  "address": "Savoke Road",
  "city": "siliguri",
  "pincode": "734001",
  "movie_timing": {
    "$date": "2023-08-27T00:00:00.000Z"
  }
},
{
  "_id": {
    "$oid": "64eaf25af482ba44f9566311"
  },
  "id": 29,
  "movie_id": 7,
  "name": "Vishal",
  "address": "S F Road",
  "city": "siliguri",
  "pincode": "734001",
  "movie_timing": {
    "$date": "2023-08-27T00:00:00.000Z"
  }
},
{
  "_id": {
    "$oid": "64eaf2e1f482ba44f956631d"
  },
  "id": 41,
  "movie_id": 19,
  "name": "Vishal",
  "address": "S F Road",
  "city": "siliguri",
  "pincode": "734001",
  "movie_timing": {
    "$date": "2023-08-27T00:00:00.000Z"
  }
},
{
  "_id": {
    "$oid": "64eaf397f482ba44f9566327"
  },
  "id": 51,
  "movie_id": 18,
  "name": "Inox",
  "address": "City Center",
  "city": "siliguri",
  "pincode": "734001",
  "movie_timing": {
    "$date": "2023-08-27T00:00:00.000Z"
  }
},
{
  "_id": {
    "$oid": "64eaf27ff482ba44f9566315"
  },
  "id": 33,
  "movie_id": 11,
  "name": "Vishal",
  "address": "S F Road",
  "city": "siliguri",
  "pincode": "734001",
  "movie_timing": {
    "$date": "2023-08-27T00:00:00.000Z"
  }
},
{
  "_id": {
    "$oid": "64eaf2a3f482ba44f9566319"
  },
  "id": 37,
  "movie_id": 15,
  "name": "Vishal",
  "address": "S F Road",
  "city": "siliguri",
  "pincode": "734001",
  "movie_timing": {
    "$date": "2023-08-27T00:00:00.000Z"
  }
},
{
  "_id": {
    "$oid": "64eaee3bf482ba44f9566306"
  },
  "id": 18,
  "movie_id": 17,
  "name": "Urvashi",
  "address": "Savoke Road",
  "city": "siliguri",
  "pincode": "734001",
  "movie_timing": {
    "$date": "2023-08-27T00:00:00.000Z"
  }
},
{
  "_id": {
    "$oid": "64eaee63f482ba44f956630a"
  },
  "id": 22,
  "movie_id": 21,
  "name": "Urvashi",
  "address": "Savoke Road",
  "city": "siliguri",
  "pincode": "734001",
  "movie_timing": {
    "$date": "2023-08-27T00:00:00.000Z"
  }
},
{
  "_id": {
    "$oid": "64eaf252f482ba44f9566310"
  },
  "id": 28,
  "movie_id": 6,
  "name": "Vishal",
  "address": "S F Road",
  "city": "siliguri",
  "pincode": "734001",
  "movie_timing": {
    "$date": "2023-08-27T00:00:00.000Z"
  }
},
{
  "_id": {
    "$oid": "64eaf422f482ba44f9566336"
  },
  "id": 66,
  "movie_id": 2,
  "name": "Inox",
  "address": "City Center",
  "city": "siliguri",
  "pincode": "734001",
  "movie_timing": {
    "$date": "2023-08-27T00:00:00.000Z"
  }
},
{
  "_id": {
    "$oid": "64eaede2f482ba44f95662fd"
  },
  "id": 9,
  "movie_id": 8,
  "name": "Urvashi",
  "address": "Savoke Road",
  "city": "siliguri",
  "pincode": "734001",
  "movie_timing": {
    "$date": "2023-08-27T00:00:00.000Z"
  }
},
{
  "_id": {
    "$oid": "64eaf287f482ba44f9566316"
  },
  "id": 34,
  "movie_id": 12,
  "name": "Vishal",
  "address": "S F Road",
  "city": "siliguri",
  "pincode": "734001",
  "movie_timing": {
    "$date": "2023-08-27T00:00:00.000Z"
  }
},
{
  "_id": {
    "$oid": "64eaf303f482ba44f956631f"
  },
  "id": 43,
  "movie_id": 21,
  "name": "Vishal",
  "address": "S F Road",
  "city": "siliguri",
  "pincode": "734001",
  "movie_timing": {
    "$date": "2023-08-27T00:00:00.000Z"
  }
},
{
  "_id": {
    "$oid": "64eaf409f482ba44f9566333"
  },
  "id": 63,
  "movie_id": 6,
  "name": "Inox",
  "address": "City Center",
  "city": "siliguri",
  "pincode": "734001",
  "movie_timing": {
    "$date": "2023-08-27T00:00:00.000Z"
  }
},
{
  "_id": {
    "$oid": "64eaf265f482ba44f9566312"
  },
  "id": 30,
  "movie_id": 8,
  "name": "Vishal",
  "address": "S F Road",
  "city": "siliguri",
  "pincode": "734001",
  "movie_timing": {
    "$date": "2023-08-27T00:00:00.000Z"
  }
},
{
  "_id": {
    "$oid": "64eaf371f482ba44f9566323"
  },
  "id": 47,
  "movie_id": 22,
  "name": "Inox",
  "address": "City Center",
  "city": "siliguri",
  "pincode": "734001",
  "movie_timing": {
    "$date": "2023-08-27T00:00:00.000Z"
  }
},
{
  "_id": {
    "$oid": "64eaf3cff482ba44f956632d"
  },
  "id": 57,
  "movie_id": 12,
  "name": "Inox",
  "address": "City Center",
  "city": "siliguri",
  "pincode": "734001",
  "movie_timing": {
    "$date": "2023-08-27T00:00:00.000Z"
  }
},
{
  "_id": {
    "$oid": "64eaf3fef482ba44f9566332"
  },
  "id": 62,
  "movie_id": 7,
  "name": "Inox",
  "address": "City Center",
  "city": "siliguri",
  "pincode": "734001",
  "movie_timing": {
    "$date": "2023-08-27T00:00:00.000Z"
  }
},
{
  "_id": {
    "$oid": "64eaf41af482ba44f9566335"
  },
  "id": 65,
  "movie_id": 4,
  "name": "Inox",
  "address": "City Center",
  "city": "siliguri",
  "pincode": "734001",
  "movie_timing": {
    "$date": "2023-08-27T00:00:00.000Z"
  }
},
{
  "_id": {
    "$oid": "64eaf3b3f482ba44f956632a"
  },
  "id": 54,
  "movie_id": 15,
  "name": "Inox",
  "address": "City Center",
  "city": "siliguri",
  "pincode": "734001",
  "movie_timing": {
    "$date": "2023-08-27T00:00:00.000Z"
  }
},
{
  "_id": {
    "$oid": "64eaf3f3f482ba44f9566331"
  },
  "id": 61,
  "movie_id": 8,
  "name": "Inox",
  "address": "City Center",
  "city": "siliguri",
  "pincode": "734001",
  "movie_timing": {
    "$date": "2023-08-27T00:00:00.000Z"
  }
},
{
  "_id": {
    "$oid": "64eaee1df482ba44f9566303"
  },
  "id": 15,
  "movie_id": 14,
  "name": "Urvashi",
  "address": "Savoke Road",
  "city": "siliguri",
  "pincode": "734001",
  "movie_timing": {
    "$date": "2023-08-27T00:00:00.000Z"
  }
},
{
  "_id": {
    "$oid": "64eaf247f482ba44f956630f"
  },
  "id": 27,
  "movie_id": 5,
  "name": "Vishal",
  "address": "S F Road",
  "city": "siliguri",
  "pincode": "734001",
  "movie_timing": {
    "$date": "2023-08-27T00:00:00.000Z"
  }
},
{
  "_id": {
    "$oid": "64eaf290f482ba44f9566317"
  },
  "id": 35,
  "movie_id": 13,
  "name": "Vishal",
  "address": "S F Road",
  "city": "siliguri",
  "pincode": "734001",
  "movie_timing": {
    "$date": "2023-08-27T00:00:00.000Z"
  }
},
{
  "_id": {
    "$oid": "64eaf2cef482ba44f956631b"
  },
  "id": 39,
  "movie_id": 17,
  "name": "Vishal",
  "address": "S F Road",
  "city": "siliguri",
  "pincode": "734001",
  "movie_timing": {
    "$date": "2023-08-27T00:00:00.000Z"
  }
},
{
  "_id": {
    "$oid": "64eaf384f482ba44f9566325"
  },
  "id": 49,
  "movie_id": 20,
  "name": "Inox",
  "address": "City Center",
  "city": "siliguri",
  "pincode": "734001",
  "movie_timing": {
    "$date": "2023-08-27T00:00:00.000Z"
  }
},
{
  "_id": {
    "$oid": "64eaf3bef482ba44f956632b"
  },
  "id": 55,
  "movie_id": 14,
  "name": "Inox",
  "address": "City Center",
  "city": "siliguri",
  "pincode": "734001",
  "movie_timing": {
    "$date": "2023-08-27T00:00:00.000Z"
  }
},
{
  "_id": {
    "$oid": "64eaf227f482ba44f956630d"
  },
  "id": 25,
  "movie_id": 2,
  "name": "Vishal",
  "address": "S F Road",
  "city": "siliguri",
  "pincode": "734001",
  "movie_timing": {
    "$date": "2023-08-27T00:00:00.000Z"
  }
},
{
  "_id": {
    "$oid": "64eaf2fbf482ba44f956631e"
  },
  "id": 42,
  "movie_id": 20,
  "name": "Vishal",
  "address": "S F Road",
  "city": "siliguri",
  "pincode": "734001",
  "movie_timing": {
    "$date": "2023-08-27T00:00:00.000Z"
  }
},
{
  "_id": {
    "$oid": "64eaf26df482ba44f9566313"
  },
  "id": 31,
  "movie_id": 9,
  "name": "Vishal",
  "address": "S F Road",
  "city": "siliguri",
  "pincode": "734001",
  "movie_timing": {
    "$date": "2023-08-27T00:00:00.000Z"
  }
},
{
  "_id": {
    "$oid": "64eaf3abf482ba44f9566329"
  },
  "id": 53,
  "movie_id": 16,
  "name": "Inox",
  "address": "City Center",
  "city": "siliguri",
  "pincode": "734001",
  "movie_timing": {
    "$date": "2023-08-27T00:00:00.000Z"
  }
},
{
  "_id": {
    "$oid": "64eaf411f482ba44f9566334"
  },
  "id": 64,
  "movie_id": 5,
  "name": "Inox",
  "address": "City Center",
  "city": "siliguri",
  "pincode": "734001",
  "movie_timing": {
    "$date": "2023-08-27T00:00:00.000Z"
  }
},
{
  "_id": {
    "$oid": "64eaf233f482ba44f956630e"
  },
  "id": 26,
  "movie_id": 4,
  "name": "Vishal",
  "address": "S F Road",
  "city": "siliguri",
  "pincode": "734001",
  "movie_timing": {
    "$date": "2023-08-27T00:00:00.000Z"
  }
},
{
  "_id": {
    "$oid": "64eaf276f482ba44f9566314"
  },
  "id": 32,
  "movie_id": 10,
  "name": "Vishal",
  "address": "S F Road",
  "city": "siliguri",
  "pincode": "734001",
  "movie_timing": {
    "$date": "2023-08-27T00:00:00.000Z"
  }
},
{
  "_id": {
    "$oid": "64eaf37cf482ba44f9566324"
  },
  "id": 48,
  "movie_id": 21,
  "name": "Inox",
  "address": "City Center",
  "city": "siliguri",
  "pincode": "734001",
  "movie_timing": {
    "$date": "2023-08-27T00:00:00.000Z"
  }
},
{
  "_id": {
    "$oid": "64eaedf6f482ba44f95662ff"
  },
  "id": 11,
  "movie_id": 10,
  "name": "Urvashi",
  "address": "Savoke Road",
  "city": "siliguri",
  "pincode": "734001",
  "movie_timing": {
    "$date": "2023-08-27T00:00:00.000Z"
  }
},
{
  "_id": {
    "$oid": "64eaee46f482ba44f9566307"
  },
  "id": 19,
  "movie_id": 18,
  "name": "Urvashi",
  "address": "Savoke Road",
  "city": "siliguri",
  "pincode": "734001",
  "movie_timing": {
    "$date": "2023-08-27T00:00:00.000Z"
  }
},
{
  "_id": {
    "$oid": "64eaf29af482ba44f9566318"
  },
  "id": 36,
  "movie_id": 14,
  "name": "Vishal",
  "address": "S F Road",
  "city": "siliguri",
  "pincode": "734001",
  "movie_timing": {
    "$date": "2023-08-27T00:00:00.000Z"
  }
},
{
  "_id": {
    "$oid": "64eaf30bf482ba44f9566320"
  },
  "id": 44,
  "movie_id": 22,
  "name": "Vishal",
  "address": "S F Road",
  "city": "siliguri",
  "pincode": "734001",
  "movie_timing": {
    "$date": "2023-08-27T00:00:00.000Z"
  }
},
{
  "_id": {
    "$oid": "64eaf313f482ba44f9566321"
  },
  "id": 45,
  "movie_id": 23,
  "name": "Vishal",
  "address": "S F Road",
  "city": "siliguri",
  "pincode": "734001",
  "movie_timing": {
    "$date": "2023-08-27T00:00:00.000Z"
  }
},
{
  "_id": {
    "$oid": "64eaedfff482ba44f9566300"
  },
  "id": 12,
  "movie_id": 11,
  "name": "Urvashi",
  "address": "Savoke Road",
  "city": "siliguri",
  "pincode": "734001",
  "movie_timing": {
    "$date": "2023-08-27T00:00:00.000Z"
  }
},
{
  "_id": {
    "$oid": "64eaee09f482ba44f9566301"
  },
  "id": 13,
  "movie_id": 12,
  "name": "Urvashi",
  "address": "Savoke Road",
  "city": "siliguri",
  "pincode": "734001",
  "movie_timing": {
    "$date": "2023-08-27T00:00:00.000Z"
  }
},
{
  "_id": {
    "$oid": "64eaee27f482ba44f9566304"
  },
  "id": 16,
  "movie_id": 15,
  "name": "Urvashi",
  "address": "Savoke Road",
  "city": "siliguri",
  "pincode": "734001",
  "movie_timing": {
    "$date": "2023-08-27T00:00:00.000Z"
  }
},
{
  "_id": {
    "$oid": "64eaee5bf482ba44f9566309"
  },
  "id": 21,
  "movie_id": 20,
  "name": "Urvashi",
  "address": "Savoke Road",
  "city": "siliguri",
  "pincode": "734001",
  "movie_timing": {
    "$date": "2023-08-27T00:00:00.000Z"
  }
},
{
  "_id": {
    "$oid": "64eaee6bf482ba44f956630b"
  },
  "id": 23,
  "movie_id": 22,
  "name": "Urvashi",
  "address": "Savoke Road",
  "city": "siliguri",
  "pincode": "734001",
  "movie_timing": {
    "$date": "2023-08-27T00:00:00.000Z"
  }
},
{
  "_id": {
    "$oid": "64eaf2d9f482ba44f956631c"
  },
  "id": 40,
  "movie_id": 18,
  "name": "Vishal",
  "address": "S F Road",
  "city": "siliguri",
  "pincode": "734001",
  "movie_timing": {
    "$date": "2023-08-27T00:00:00.000Z"
  }
},
{
  "_id": {
    "$oid": "64eaf3a3f482ba44f9566328"
  },
  "id": 52,
  "movie_id": 17,
  "name": "Inox",
  "address": "City Center",
  "city": "siliguri",
  "pincode": "734001",
  "movie_timing": {
    "$date": "2023-08-27T00:00:00.000Z"
  }
},
{
  "_id": {
    "$oid": "64eaf3c7f482ba44f956632c"
  },
  "id": 56,
  "movie_id": 13,
  "name": "Inox",
  "address": "City Center",
  "city": "siliguri",
  "pincode": "734001",
  "movie_timing": {
    "$date": "2023-08-27T00:00:00.000Z"
  }
},
{
  "_id": {
    "$oid": "64eaf3dff482ba44f956632f"
  },
  "id": 59,
  "movie_id": 10,
  "name": "Inox",
  "address": "City Center",
  "city": "siliguri",
  "pincode": "734001",
  "movie_timing": {
    "$date": "2023-08-27T00:00:00.000Z"
  }
},
{
  "_id": {
    "$oid": "64eaf38ef482ba44f9566326"
  },
  "id": 50,
  "movie_id": 19,
  "name": "Inox",
  "address": "City Center",
  "city": "siliguri",
  "pincode": "734001",
  "movie_timing": {
    "$date": "2023-08-27T00:00:00.000Z"
  }
},
{
  "_id": {
    "$oid": "64eaf3d7f482ba44f956632e"
  },
  "id": 58,
  "movie_id": 11,
  "name": "Inox",
  "address": "City Center",
  "city": "siliguri",
  "pincode": "734001",
  "movie_timing": {
    "$date": "2023-08-27T00:00:00.000Z"
  }
},
{
  "_id": {
    "$oid": "64eaf2abf482ba44f956631a"
  },
  "id": 38,
  "movie_id": 16,
  "name": "Vishal",
  "address": "S F Road",
  "city": "siliguri",
  "pincode": "734001",
  "movie_timing": {
    "$date": "2023-08-27T00:00:00.000Z"
  }
},
{
  "_id": {
    "$oid": "64eaf3eaf482ba44f9566330"
  },
  "id": 60,
  "movie_id": 9,
  "name": "Inox",
  "address": "City Center",
  "city": "siliguri",
  "pincode": "734001",
  "movie_timing": {
    "$date": "2023-08-27T00:00:00.000Z"
  }
}]